[{"OBJECT_NAME":"STARLINK-3717","OBJECT_ID":"2022-029J","EPOCH":"2026-03-09T10:42:18.324288","MEAN_MOTION":15.08837508,"ECCENTRICITY":0.00014386,"INCLINATION":53.2167,"RA_OF_ASC_NODE":80.2136,"ARG_OF_PERICENTER":91.7214,"MEAN_ANOMALY":268.3943,"EPHEMERIS_TYPE":0,"CLASSIFICATION_TYPE":"U","NORAD_CAT_ID":52096,"ELEMENT_SET_NO":999,"REV_AT_EPOCH":22074,"BSTAR":1.8700982e-5,"MEAN_MOTION_DOT":1.0e-7,"MEAN_MOTION_DDOT":0},{"OBJECT_NAME":"SL-18 R\/B","OBJECT_ID":"2001-007B","EPOCH":"2026-03-09T23:25:11.323200","MEAN_MOTION":15.07301441,"ECCENTRICITY":0.00085554,"INCLINATION":97.6926,"RA_OF_ASC_NODE":87.6817,"ARG_OF_PERICENTER":353.225,"MEAN_ANOMALY":6.886,"EPHEMERIS_TYPE":0,"CLASSIFICATION_TYPE":"U","NORAD_CAT_ID":26703,"ELEMENT_SET_NO":999,"REV_AT_EPOCH":64619,"BSTAR":0.00021543689,"MEAN_MOTION_DOT":3.19e-5,"MEAN_MOTION_DDOT":0}]
